$$SOE
2459580.500000000, A.D. 2022-Jan-01 00:00:00.0000, -6.289891128624834E+09, 1.769288603496702E+09, -7.994795999951457E+08,
2459587.500000000, A.D. 2022-Jan-08 00:00:00.0000, -6.290878402708819E+09, 1.766729068804071E+09, -7.995272776531365E+08,
2459594.500000000, A.D. 2022-Jan-15 00:00:00.0000, -6.291864685491795E+09, 1.764169248803872E+09, -7.995748175996449E+08,
2459601.500000000, A.D. 2022-Jan-22 00:00:00.0000, -6.292849973017235E+09, 1.761609142472620E+09, -7.996222202190018E+08,
2459608.500000000, A.D. 2022-Jan-29 00:00:00.0000, -6.293834260749788E+09, 1.759048751263151E+09, -7.996694857884328E+08,
2459615.500000000, A.D. 2022-Feb-05 00:00:00.0000, -6.294817545782349E+09, 1.756488078432945E+09, -7.997166143302937E+08,
2459622.500000000, A.D. 2022-Feb-12 00:00:00.0000, -6.295799826869812E+09, 1.753927127304215E+09, -7.997636057493516E+08,
2459629.500000000, A.D. 2022-Feb-19 00:00:00.0000, -6.296781103614290E+09, 1.751365900824747E+09, -7.998104599401097E+08,
2459636.500000000, A.D. 2022-Feb-26 00:00:00.0000, -6.297761376113143E+09, 1.748804401706488E+09, -7.998571768031642E+08,
2459643.500000000, A.D. 2022-Mar-05 00:00:00.0000, -6.298740644910566E+09, 1.746242632525031E+09, -7.999037562358599E+08,
2459650.500000000, A.D. 2022-Mar-12 00:00:00.0000, -6.299718911030904E+09, 1.743680595714344E+09, -7.999501981232530E+08,
2459657.500000000, A.D. 2022-Mar-19 00:00:00.0000, -6.300696176022641E+09, 1.741118293484932E+09, -7.999965023339111E+08,
2459664.500000000, A.D. 2022-Mar-26 00:00:00.0000, -6.301672441990664E+09, 1.738555727659688E+09, -8.000426687233739E+08,
2459671.500000000, A.D. 2022-Apr-02 00:00:00.0000, -6.302647711548975E+09, 1.735992899371801E+09, -8.000886971563267E+08,
2459678.500000000, A.D. 2022-Apr-09 00:00:00.0000, -6.303621987421844E+09, 1.733429808629788E+09, -8.001345875722700E+08,
2459685.500000000, A.D. 2022-Apr-16 00:00:00.0000, -6.304595271336212E+09, 1.730866454403949E+09, -8.001803400741730E+08,
2459692.500000000, A.D. 2022-Apr-23 00:00:00.0000, -6.305567563474270E+09, 1.728302836318687E+09, -8.002259548352509E+08,
2459699.500000000, A.D. 2022-Apr-30 00:00:00.0000, -6.306538864356334E+09, 1.725738955705608E+09, -8.002714318359030E+08,
2459706.500000000, A.D. 2022-May-07 00:00:00.0000, -6.307509176091284E+09, 1.723174814043934E+09, -8.003167708730783E+08,
2459713.500000000, A.D. 2022-May-14 00:00:00.0000, -6.308478501605222E+09, 1.720610411826520E+09, -8.003619717212676E+08,
2459720.500000000, A.D. 2022-May-21 00:00:00.0000, -6.309446843879373E+09, 1.718045748610277E+09, -8.004070341968254E+08,
2459727.500000000, A.D. 2022-May-28 00:00:00.0000, -6.310414205676064E+09, 1.715480823292283E+09, -8.004519581600389E+08,
2459734.500000000, A.D. 2022-Jun-04 00:00:00.0000, -6.311380589475658E+09, 1.712915634298881E+09, -8.004967435059055E+08,
2459741.500000000, A.D. 2022-Jun-11 00:00:00.0000, -6.312345997479712E+09, 1.710350179690079E+09, -8.005413901566627E+08,
2459748.500000000, A.D. 2022-Jun-18 00:00:00.0000, -6.313310431641657E+09, 1.707784457192734E+09, -8.005858980584790E+08,
2459755.500000000, A.D. 2022-Jun-25 00:00:00.0000, -6.314273893695515E+09, 1.705218464129592E+09, -8.006302671876352E+08,
2459762.500000000, A.D. 2022-Jul-02 00:00:00.0000, -6.315236385048590E+09, 1.702652197178687E+09, -8.006744975837595E+08,
2459769.500000000, A.D. 2022-Jul-09 00:00:00.0000, -6.316197906147783E+09, 1.700085652140298E+09, -8.007185894313245E+08,
2459776.500000000, A.D. 2022-Jul-16 00:00:00.0000, -6.317158455374746E+09, 1.697518824794441E+09, -8.007625430957067E+08,
2459783.500000000, A.D. 2022-Jul-23 00:00:00.0000, -6.318118029668191E+09, 1.694951712926703E+09, -8.008063589056195E+08,
2459790.500000000, A.D. 2022-Jul-30 00:00:00.0000, -6.319076626789329E+09, 1.692384316168550E+09, -8.008500369635081E+08,
2459797.500000000, A.D. 2022-Aug-06 00:00:00.0000, -6.320034245631621E+09, 1.689816634300232E+09, -8.008935772608098E+08,
2459804.500000000, A.D. 2022-Aug-13 00:00:00.0000, -6.320990885398066E+09, 1.687248666770756E+09, -8.009369797972300E+08,
2459811.500000000, A.D. 2022-Aug-20 00:00:00.0000, -6.321946545215347E+09, 1.684680412931523E+09, -8.009802446009812E+08,
2459818.500000000, A.D. 2022-Aug-27 00:00:00.0000, -6.322901224116733E+09, 1.682111872257064E+09, -8.010233717153782E+08,
2459825.500000000, A.D. 2022-Sep-03 00:00:00.0000, -6.323854921145755E+09, 1.679543044442326E+09, -8.010663611833848E+08,
2459832.500000000, A.D. 2022-Sep-10 00:00:00.0000, -6.324807635490611E+09, 1.676973929400440E+09, -8.011092130362910E+08,
2459839.500000000, A.D. 2022-Sep-17 00:00:00.0000, -6.325759366619854E+09, 1.674404527159206E+09, -8.011519272893080E+08,
2459846.500000000, A.D. 2022-Sep-24 00:00:00.0000, -6.326710114358954E+09, 1.671834837605448E+09, -8.011945039538152E+08,
2459853.500000000, A.D. 2022-Oct-01 00:00:00.0000, -6.327659878667715E+09, 1.669264860054921E+09, -8.012369430901982E+08,
2459860.500000000, A.D. 2022-Oct-08 00:00:00.0000, -6.328608658711288E+09, 1.666694593169852E+09, -8.012792448961593E+08,
2459867.500000000, A.D. 2022-Oct-15 00:00:00.0000, -6.329556452156590E+09, 1.664124036423300E+09, -8.013214096472679E+08,
2459874.500000000, A.D. 2022-Oct-22 00:00:00.0000, -6.330503256875717E+09, 1.661553191426442E+09, -8.013634374275177E+08,
2459881.500000000, A.D. 2022-Oct-29 00:00:00.0000, -6.331449072558556E+09, 1.658982060525293E+09, -8.014053280912312E+08,
2459888.500000000, A.D. 2022-Nov-05 00:00:00.0000, -6.332393900135244E+09, 1.656410645408019E+09, -8.014470814251356E+08,
2459895.500000000, A.D. 2022-Nov-12 00:00:00.0000, -6.333337740973340E+09, 1.653838946990052E+09, -8.014886972270720E+08,
2459902.500000000, A.D. 2022-Nov-19 00:00:00.0000, -6.334280596569053E+09, 1.651266965622900E+09, -8.015301753135114E+08,
2459909.500000000, A.D. 2022-Nov-26 00:00:00.0000, -6.335222468470325E+09, 1.648694701229332E+09, -8.015715155125585E+08,
2459916.500000000, A.D. 2022-Dec-03 00:00:00.0000, -6.336163358265738E+09, 1.646122153353383E+09, -8.016127176587007E+08,
2459923.500000000, A.D. 2022-Dec-10 00:00:00.0000, -6.337103267593695E+09, 1.643549321143903E+09, -8.016537815920109E+08,
2459930.500000000, A.D. 2022-Dec-17 00:00:00.0000, -6.338042198147202E+09, 1.640976203246632E+09, -8.016947071661181E+08,
2459937.500000000, A.D. 2022-Dec-24 00:00:00.0000, -6.338980151564808E+09, 1.638402797538977E+09, -8.017354942803465E+08,
2459944.500000000, A.D. 2022-Dec-31 00:00:00.0000, -6.339917128850118E+09, 1.635829100815002E+09, -8.017761429599886E+08,
2459951.500000000, A.D. 2023-Jan-07 00:00:00.0000, -6.340853129197115E+09, 1.633255109383028E+09, -8.018166534172795E+08,
2459958.500000000, A.D. 2023-Jan-14 00:00:00.0000, -6.341788150188371E+09, 1.630680821072634E+09, -8.018570258719687E+08,
2459965.500000000, A.D. 2023-Jan-21 00:00:00.0000, -6.342722190010820E+09, 1.628106235478449E+09, -8.018972603315598E+08,
2459972.500000000, A.D. 2023-Jan-28 00:00:00.0000, -6.343655248021163E+09, 1.625531352245217E+09, -8.019373566835530E+08,
2459979.500000000, A.D. 2023-Feb-04 00:00:00.0000, -6.344587323869409E+09, 1.622956170421900E+09, -8.019773148330636E+08,
2459986.500000000, A.D. 2023-Feb-11 00:00:00.0000, -6.345518416975769E+09, 1.620380688691272E+09, -8.020171347368596E+08,
2459993.500000000, A.D. 2023-Feb-18 00:00:00.0000, -6.346448526424124E+09, 1.617804905651966E+09, -8.020568163951805E+08,
2460000.500000000, A.D. 2023-Feb-25 00:00:00.0000, -6.347377651009106E+09, 1.615228819991368E+09, -8.020963598385215E+08,
2460007.500000000, A.D. 2023-Mar-04 00:00:00.0000, -6.348305789334488E+09, 1.612652430568377E+09, -8.021357651170628E+08,
2460014.500000000, A.D. 2023-Mar-11 00:00:00.0000, -6.349232939934040E+09, 1.610075736406790E+09, -8.021750322951404E+08,
2460021.500000000, A.D. 2023-Mar-18 00:00:00.0000, -6.350159101367612E+09, 1.607498736550062E+09, -8.022141614589132E+08,
2460028.500000000, A.D. 2023-Mar-25 00:00:00.0000, -6.351084272088920E+09, 1.604921429730500E+09, -8.022531527595168E+08,
2460035.500000000, A.D. 2023-Apr-01 00:00:00.0000, -6.352008449660348E+09, 1.602343814246492E+09, -8.022920064982665E+08,
2460042.500000000, A.D. 2023-Apr-08 00:00:00.0000, -6.352931629929966E+09, 1.599765889272972E+09, -8.023307230971614E+08,
2460049.500000000, A.D. 2023-Apr-15 00:00:00.0000, -6.353853808507704E+09, 1.597187656499101E+09, -8.023693028305501E+08,
2460056.500000000, A.D. 2023-Apr-22 00:00:00.0000, -6.354774982731350E+09, 1.594609119041340E+09, -8.024077457331989E+08,
2460063.500000000, A.D. 2023-Apr-29 00:00:00.0000, -6.355695151387315E+09, 1.592030279884862E+09, -8.024460517514807E+08,
2460070.500000000, A.D. 2023-May-06 00:00:00.0000, -6.356614313946315E+09, 1.589451141634565E+09, -8.024842208307046E+08,
2460077.500000000, A.D. 2023-May-13 00:00:00.0000, -6.357532470290704E+09, 1.586871706682213E+09, -8.025222529221128E+08,
2460084.500000000, A.D. 2023-May-20 00:00:00.0000, -6.358449620699337E+09, 1.584291977298738E+09, -8.025601479713346E+08,
2460091.500000000, A.D. 2023-May-27 00:00:00.0000, -6.359365765896384E+09, 1.581711955622334E+09, -8.025979059086783E+08,
2460098.500000000, A.D. 2023-Jun-03 00:00:00.0000, -6.360280907106558E+09, 1.579131643568402E+09, -8.026355266446915E+08,
2460105.500000000, A.D. 2023-Jun-10 00:00:00.0000, -6.361195046092942E+09, 1.576551042647653E+09, -8.026730100745759E+08,
2460112.500000000, A.D. 2023-Jun-17 00:00:00.0000, -6.362108185088374E+09, 1.573970153632317E+09, -8.027103561048139E+08,
2460119.500000000, A.D. 2023-Jun-24 00:00:00.0000, -6.363020326300425E+09, 1.571388976126135E+09, -8.027475647270622E+08,
2460126.500000000, A.D. 2023-Jul-01 00:00:00.0000, -6.363931470736773E+09, 1.568807508866285E+09, -8.027846360950752E+08,
2460133.500000000, A.D. 2023-Jul-08 00:00:00.0000, -6.364841618025055E+09, 1.566225751579355E+09, -8.028215703841081E+08,
2460140.500000000, A.D. 2023-Jul-15 00:00:00.0000, -6.365750768503834E+09, 1.563643705561625E+09, -8.028583675470622E+08,
$$EOE